[ {"name": "STARLINK-36203", "line1": "1 67214U 25304Y   26111.83968301  .00002286  00000+0  19932-3 0  9997", "line2": "2 67214  70.0014  65.8380 0004131 261.2613  98.8078 14.98334597 20346"}, {"name": "STARLINK-36221", "line1": "1 67215U 25304Z   26111.29726496 -.00002056  00000+0 -16463-3 0  9998", "line2": "2 67215  70.0021  67.1562 0003562 266.9354  93.1397 14.98318312 20263"}, {"name": "STARLINK-36212", "line1": "1 67216U 25304AA  26111.62273168  .00004582  00000+0  39166-3 0  9998", "line2": "2 67216  70.0037  66.2780 0002149 265.1621  94.9293 14.98320879 20312"}, {"name": "STARLINK-36216", "line1": "1 67217U 25304AB  26111.88139943  .00005425  00000+0  46194-3 0  9995", "line2": "2 67217  70.0032  65.5765 0003631 263.6598  96.4147 14.98340550 20342"}, {"name": "STARLINK-36211", "line1": "1 67218U 25304AC  26111.60601455  .00004344  00000+0  37155-3 0  9994", "line2": "2 67218  70.0018  66.2235 0003276 268.0742  92.0042 14.98335075 20287"}, {"name": "STARLINK-36490", "line1": "1 67305U 26002A   26111.26506515  .00017138  00000+0  63062-3 0  9991", "line2": "2 67305  43.0004  84.5288 0001526 265.6964  94.3713 15.27592604 17658"}, {"name": "STARLINK-36488", "line1": "1 67306U 26002B   26111.83335647  .00052068  00000+0  18899-2 0  9999", "line2": "2 67306  43.0038  81.9018 0001363 249.3956 119.0043 15.27553134  5818"}, {"name": "STARLINK-36481", "line1": "1 67307U 26002C   26111.29462286  .00019216  00000+0  70576-3 0  9999", "line2": "2 67307  43.0024  84.7524 0001428 269.1760  90.8929 15.27590224 17590"}, {"name": "STARLINK-36449", "line1": "1 67308U 26002D   26111.61384046  .00019280  00000+0  70787-3 0  9998", "line2": "2 67308  43.0022  82.8452 0001902 274.3425  85.7209 15.27600234 17701"}, {"name": "STARLINK-36482", "line1": "1 67309U 26002E   26111.60998448  .00022685  00000+0  83071-3 0  9998", "line2": "2 67309  43.0021  82.8174 0002199 279.1028  80.9574 15.27603552 17644"}, {"name": "STARLINK-36491", "line1": "1 67310U 26002F   26111.89337676  .00022657  00000+0  82979-3 0  9996", "line2": "2 67310  43.0001  81.5113 0000284 312.6912  47.3915 15.27601307 17687"}, {"name": "STARLINK-36495", "line1": "1 67311U 26002G   26111.27277597  .00012066  00000+0  44721-3 0  9990", "line2": "2 67311  42.9997  84.5883 0001099 263.1085  96.9642 15.27584719 17755"}, {"name": "STARLINK-36485", "line1": "1 67312U 26002H   26111.32402393  .00015511  00000+0  57180-3 0  9992", "line2": "2 67312  43.0028  84.1114 0001489 267.2909  92.7772 15.27590718 17607"}, {"name": "STARLINK-36445", "line1": "1 67313U 26002J   26111.63954419  .00019040  00000+0  69955-3 0  9992", "line2": "2 67313  43.0029  83.0457 0001024 260.8376  99.2359 15.27583828 17808"}, {"name": "STARLINK-36476", "line1": "1 67314U 26002K   26111.61769481  .00017994  00000+0  66138-3 0  9990", "line2": "2 67314  43.0024  82.8722 0002170 281.1810  78.8797 15.27600584 17637"}, {"name": "STARLINK-36463", "line1": "1 67315U 26002L   26111.20481528  .00020139  00000+0  73962-3 0  9997", "line2": "2 67315  43.0000  84.9346 0001541 271.6866  88.3809 15.27567463 17642"}, {"name": "STARLINK-36461", "line1": "1 67316U 26002M   26111.20096041  .00016025  00000+0  59029-3 0  9997", "line2": "2 67316  43.0007  84.9059 0001501 273.3895  86.6785 15.27596341 17740"}, {"name": "STARLINK-36450", "line1": "1 67317U 26002N   26111.64082615  .00016863  00000+0  62083-3 0  9992", "line2": "2 67317  43.0015  83.0526 0000894 257.9813 102.0939 15.27583612 17809"}, {"name": "STARLINK-36498", "line1": "1 67318U 26002P   26111.62283838  .00018514  00000+0  68020-3 0  9993", "line2": "2 67318  43.0041  82.9131 0001272 280.7415  79.3294 15.27600193 17705"}, {"name": "STARLINK-36470", "line1": "1 67319U 26002Q   26111.29975875  .00011613  00000+0  43076-3 0  9993", "line2": "2 67319  43.0037  84.7920 0000958 266.2809  93.7933 15.27587295 17654"}, {"name": "STARLINK-36500", "line1": "1 67320U 26002R   26111.64468475  .00012672  00000+0  46907-3 0  9999", "line2": "2 67320  43.0037  83.0830 0001456 260.3050  99.7637 15.27590581 17700"}, {"name": "STARLINK-36462", "line1": "1 67321U 26002S   26111.89466127  .00014595  00000+0  53856-3 0  9996", "line2": "2 67321  43.0036  81.5187 0001001 272.3562  87.7175 15.27596631 17688"}, {"name": "STARLINK-36434", "line1": "1 67322U 26002T   26111.63698635  .00021912  00000+0  80322-3 0  9999", "line2": "2 67322  43.0046  83.0239 0002372 264.2241  95.8340 15.27587977 17644"}, {"name": "STARLINK-36497", "line1": "1 67323U 26002U   26111.61512314  .00014138  00000+0  52225-3 0  9990", "line2": "2 67323  43.0018  82.8520 0001449 269.8727  90.1959 15.27582154 17701"}, {"name": "STARLINK-36471", "line1": "1 67324U 26002V   26111.60099120  .00018599  00000+0  68331-3 0  9995", "line2": "2 67324  42.9997  82.7471 0001109 259.6204 100.4523 15.27598229 17645"}, {"name": "STARLINK-36473", "line1": "1 67325U 26002W   26111.27790179  .00051127  00000+0  18507-2 0  9994", "line2": "2 67325  42.9948  84.6226 0000609 308.4449  51.6348 15.27648332 17754"}, {"name": "STARLINK-36430", "line1": "1 67326U 26002X   26111.32145219  .00014120  00000+0  52138-3 0  9991", "line2": "2 67326  43.0019  84.0875 0001374 268.0354  92.0340 15.27596512 17760"}, {"name": "STARLINK-36501", "line1": "1 67327U 26002Y   26111.39326563  .00024789  00000+0  90685-3 0  9993", "line2": "2 67327  43.0029  83.7664 0001596 257.6104 102.4569 15.27597203 17618"}, {"name": "STARLINK-36489", "line1": "1 67328U 26002Z   26111.62797590  .00012157  00000+0  45040-3 0  9993", "line2": "2 67328  43.0049  82.9516 0001362 277.8333  82.2364 15.27593201 17800"}, {"name": "STARLINK-36496", "line1": "1 67329U 26002AA  26111.61255422  .00015779  00000+0  58143-3 0  9997", "line2": "2 67329  43.0036  82.8304 0001273 275.1942  84.8764 15.27594832 17622"}, {"name": "STARLINK-36483", "line1": "1 67330U 26002AB  26111.63440352  .00013284  00000+0  49121-3 0  9994", "line2": "2 67330  43.0025  82.9988 0001185 261.8696  98.2021 15.27590077 17803"}, {"name": "STARLINK-36494", "line1": "1 67331U 26002AC  26111.22409224  .00016126  00000+0  59402-3 0  9994", "line2": "2 67331  43.0001  85.0728 0000898 262.5044  97.5706 15.27592721 17742"}, {"name": "STARLINK-36492", "line1": "1 67332U 26002AD  26111.64210058  .00006775  00000+0  25540-3 0  9991", "line2": "2 67332  43.0032  83.0613 0001668 260.0487 100.0177 15.27591451 17806"}, {"name": "STARLINK-36427", "line1": "1 67333U 26002AE  26111.61898095  .00015231  00000+0  56158-3 0  9998", "line2": "2 67333  42.9991  82.8685 0001295 279.5822  80.4883 15.27596521 17706"}, {"name": "STARLINK-35343", "line1": "1 67334U 26003A   26110.93119975  .00014376  00000+0  53083-3 0  9990", "line2": "2 67334  43.0031 348.5556 0001544 264.2822  95.7854 15.27585941 15283"}, {"name": "STARLINK-36486", "line1": "1 67335U 26003B   26111.36705238  .00022056  00000+0  80854-3 0  9992", "line2": "2 67335  43.0022 345.8048 0001978 252.0928 107.9709 15.27582620 15357"}, {"name": "STARLINK-36480", "line1": "1 67336U 26003C   26111.26583915  .00016519  00000+0  60817-3 0  9992", "line2": "2 67336  43.0004 346.7662 0001524 276.5023  83.5655 15.27596378 15336"}, {"name": "STARLINK-36410", "line1": "1 67337U 26003D   26111.34921494  .00025020  00000+0  91547-3 0  9991", "line2": "2 67337  43.0021 346.5401 0001512 277.6645  82.4035 15.27586120 15349"}, {"name": "STARLINK-36413", "line1": "1 67338U 26003E   26111.34150663  .00015045  00000+0  55492-3 0  9999", "line2": "2 67338  42.9993 346.4832 0001134 278.9145  81.1578 15.27592870 15349"}, {"name": "STARLINK-36451", "line1": "1 67339U 26003F   26111.00044184  .00015175  00000+0  55972-3 0  9990", "line2": "2 67339  43.0020 348.2151 0001490 281.5021  78.5664 15.27585963 15290"}, {"name": "STARLINK-36339", "line1": "1 67340U 26003G   26110.99270645  .00023653  00000+0  86598-3 0  9990", "line2": "2 67340  43.0049 348.1555 0001992 261.1120  98.9506 15.27591093 15293"}, {"name": "STARLINK-36453", "line1": "1 67341U 26003H   26110.98887247  .00029119  00000+0  10629-2 0  9996", "line2": "2 67341  43.0053 348.1273 0001841 257.7938 102.2708 15.27598759 15296"}, {"name": "STARLINK-36432", "line1": "1 67342U 26003J   26111.35934490  .00023018  00000+0  84273-3 0  9991", "line2": "2 67342  43.0027 345.7464 0001698 274.7267  85.3391 15.27605018 15350"}, {"name": "STARLINK-36458", "line1": "1 67343U 26003K   26111.37476330  .00030825  00000+0  11244-2 0  9999", "line2": "2 67343  43.0085 345.8593 0002048 255.4082 104.6543 15.27597932 15359"}, {"name": "STARLINK-36422", "line1": "1 67344U 26003L   26111.36319763  .00031353  00000+0  11421-2 0  9999", "line2": "2 67344  43.0107 345.7721 0002106 270.9033  89.1577 15.27634404 15350"}, {"name": "STARLINK-35676", "line1": "1 67345U 26003M   26111.37091189  .00016902  00000+0  62195-3 0  9998", "line2": "2 67345  43.0031 345.8328 0001520 262.9101  97.1578 15.27598908 15355"}, {"name": "STARLINK-36472", "line1": "1 67346U 26003N   26111.33893797  .00016591  00000+0  61083-3 0  9999", "line2": "2 67346  43.0018 346.4594 0001097 279.6676  80.4052 15.27592813 15333"}, {"name": "STARLINK-36420", "line1": "1 67347U 26003P   26111.00172067  .00008908  00000+0  33291-3 0  9997", "line2": "2 67347  43.0029 348.2218 0001435 268.4759  91.5928 15.27575034 15299"}, {"name": "STARLINK-36467", "line1": "1 67348U 26003Q   26111.07096486  .00016612  00000+0  61160-3 0  9992", "line2": "2 67348  43.0012 347.8820 0001474 259.3370 100.7316 15.27591073 15304"}, {"name": "STARLINK-36457", "line1": "1 67349U 26003R   26111.05554297  .00027563  00000+0  10073-2 0  9993", "line2": "2 67349  43.0060 347.7683 0001900 261.1217  98.9420 15.27584149 15309"}, {"name": "STARLINK-36475", "line1": "1 67350U 26003S   26111.36834186  .00019547  00000+0  71754-3 0  9994", "line2": "2 67350  43.0063 345.8112 0001916 268.2310  91.8323 15.27599783 15358"}, {"name": "STARLINK-36478", "line1": "1 67351U 26003T   26110.96833632  .00025216  00000+0  92368-3 0  9999", "line2": "2 67351  43.0024 347.9730 0000521 278.0513  82.0279 15.27545382 15291"}]